start=new Date('2022-05-14T00:00:00.000Z').valueOf();
sats=[{"BSTAR":"0.00006484300000","NORAD_CAT_ID":"47868","ECCENTRICITY":"0.00015610","PERIAPSIS":"546.145","OBJECT_NAME":"STARLINK-2323","OBJECT_ID":"2021-021J","MEAN_MOTION":"15.06396011","SITE":"AFETR","PERIOD":"95.592","GP_ID":"203478535","COUNTRY_CODE":"US","MEAN_MOTION_DDOT":"0.0000000000000","REV_AT_EPOCH":"6666","OBJECT_TYPE":"PAYLOAD","ELEMENT_SET_NO":"999","CLASSIFICATION_TYPE":"U","DECAY_DATE":null,"RCS_SIZE":"LARGE","SEMIMAJOR_AXIS":"6925.361","INCLINATION":"53.0574","EPOCH":"2022-05-13T21:33:28.609056","MEAN_ANOMALY":"277.9359","MEAN_MOTION_DOT":"0.00000684","CENTER_NAME":"EARTH","TLE_LINE2":"2 47868  53.0574 357.5711 0001561  82.1807 277.9359 15.06396011 66665","MEAN_ELEMENT_THEORY":"SGP4","RA_OF_ASC_NODE":"357.5711","REF_FRAME":"TEME","TIME_SYSTEM":"UTC","LAUNCH_DATE":"2021-03-14","FILE":"3444395","EPHEMERIS_TYPE":"0","TLE_LINE1":"1 47868U 21021J   22133.89824779  .00000684  00000-0  64843-4 0  9991","ARG_OF_PERICENTER":"82.1807","APOAPSIS":"548.307"},{"PERIOD":"95.592","GP_ID":"203477284","SITE":"AFETR","MEAN_MOTION_DDOT":"0.0000000000000","COUNTRY_CODE":"US","ELEMENT_SET_NO":"999","OBJECT_TYPE":"PAYLOAD","REV_AT_EPOCH":"6606","DECAY_DATE":null,"CLASSIFICATION_TYPE":"U","RCS_SIZE":"LARGE","INCLINATION":"53.0569","SEMIMAJOR_AXIS":"6925.341","MEAN_ANOMALY":"300.5427","EPOCH":"2022-05-13T21:37:26.724864","BSTAR":"0.00006218200000","ECCENTRICITY":"0.00017570","NORAD_CAT_ID":"47869","PERIAPSIS":"545.989","OBJECT_NAME":"STARLINK-2324","OBJECT_ID":"2021-021K","MEAN_MOTION":"15.06402409","RA_OF_ASC_NODE":"47.5708","LAUNCH_DATE":"2021-03-14","TIME_SYSTEM":"UTC","REF_FRAME":"TEME","FILE":"3444395","EPHEMERIS_TYPE":"0","TLE_LINE1":"1 47869U 21021K   22133.90100376  .00000645  00000-0  62182-4 0  9995","ARG_OF_PERICENTER":"59.5735","APOAPSIS":"548.423","CENTER_NAME":"EARTH","MEAN_MOTION_DOT":"0.00000645","TLE_LINE2":"2 47869  53.0569  47.5708 0001757  59.5735 300.5427 15.06402409 66069","MEAN_ELEMENT_THEORY":"SGP4"},{"CENTER_NAME":"EARTH","MEAN_MOTION_DOT":"-0.00000012","TLE_LINE2":"2 47870  53.0554  75.1470 0002084  31.5109 328.6005 15.06401208 65032","MEAN_ELEMENT_THEORY":"SGP4","RA_OF_ASC_NODE":"75.1470","LAUNCH_DATE":"2021-03-14","TIME_SYSTEM":"UTC","REF_FRAME":"TEME","TLE_LINE1":"1 47870U 21021L   22133.32185715 -.00000012  00000-0  18084-4 0  9994","EPHEMERIS_TYPE":"0","ARG_OF_PERICENTER":"31.5109","FILE":"3444091","APOAPSIS":"548.653","BSTAR":"0.00001808400000","NORAD_CAT_ID":"47870","ECCENTRICITY":"0.00020840","PERIAPSIS":"545.767","MEAN_MOTION":"15.06401208","OBJECT_ID":"2021-021L","OBJECT_NAME":"STARLINK-2326","COUNTRY_CODE":"US","MEAN_MOTION_DDOT":"0.0000000000000","PERIOD":"95.592","GP_ID":"203449344","SITE":"AFETR","DECAY_DATE":null,"CLASSIFICATION_TYPE":"U","ELEMENT_SET_NO":"999","OBJECT_TYPE":"PAYLOAD","REV_AT_EPOCH":"6503","RCS_SIZE":"LARGE","MEAN_ANOMALY":"328.6005","EPOCH":"2022-05-13T07:43:28.457760","INCLINATION":"53.0554","SEMIMAJOR_AXIS":"6925.345"},{"ECCENTRICITY":"0.00017830","NORAD_CAT_ID":"47871","BSTAR":"0.00008087700000","OBJECT_NAME":"STARLINK-2327","OBJECT_ID":"2021-021M","MEAN_MOTION":"15.06403078","PERIAPSIS":"545.969","OBJECT_TYPE":"PAYLOAD","ELEMENT_SET_NO":"999","REV_AT_EPOCH":"6595","CLASSIFICATION_TYPE":"U","DECAY_DATE":null,"SITE":"AFETR","GP_ID":"203477786","PERIOD":"95.592","COUNTRY_CODE":"US","MEAN_MOTION_DDOT":"0.0000000000000","SEMIMAJOR_AXIS":"6925.339","INCLINATION":"53.0553","EPOCH":"2022-05-13T21:32:08.607840","MEAN_ANOMALY":"308.7339","RCS_SIZE":"LARGE","TLE_LINE2":"2 47871  53.0553  47.5847 0001783  51.3810 308.7339 15.06403078 65954","CENTER_NAME":"EARTH","MEAN_MOTION_DOT":"0.00000923","MEAN_ELEMENT_THEORY":"SGP4","REF_FRAME":"TEME","TIME_SYSTEM":"UTC","LAUNCH_DATE":"2021-03-14","RA_OF_ASC_NODE":"47.5847","APOAPSIS":"548.439","FILE":"3444395","TLE_LINE1":"1 47871U 21021M   22133.89732185  .00000923  00000-0  80877-4 0  9995","ARG_OF_PERICENTER":"51.3810","EPHEMERIS_TYPE":"0"},{"CLASSIFICATION_TYPE":"U","DECAY_DATE":null,"REV_AT_EPOCH":"6676","OBJECT_TYPE":"PAYLOAD","ELEMENT_SET_NO":"999","COUNTRY_CODE":"US","MEAN_MOTION_DDOT":"0.0000000000000","SITE":"AFETR","PERIOD":"93.517","GP_ID":"203478036","EPOCH":"2022-05-13T21:59:09.835584","MEAN_ANOMALY":"49.6016","SEMIMAJOR_AXIS":"6824.743","INCLINATION":"53.0534","RCS_SIZE":"LARGE","NORAD_CAT_ID":"47872","ECCENTRICITY":"0.00085350","BSTAR":"0.00043183000000","MEAN_MOTION":"15.39832047","OBJECT_ID":"2021-021N","OBJECT_NAME":"STARLINK-2328","PERIAPSIS":"440.783","REF_FRAME":"TEME","TIME_SYSTEM":"UTC","LAUNCH_DATE":"2021-03-14","RA_OF_ASC_NODE":"350.9111","APOAPSIS":"452.432","ARG_OF_PERICENTER":"310.4243","TLE_LINE1":"1 47872U 21021N   22133.91608606  .00017049  00000-0  43183-3 0  9994","EPHEMERIS_TYPE":"0","FILE":"3444395","TLE_LINE2":"2 47872  53.0534 350.9111 0008535 310.4243  49.6016 15.39832047 66761","CENTER_NAME":"EARTH","MEAN_MOTION_DOT":"0.00017049","MEAN_ELEMENT_THEORY":"SGP4"},{"BSTAR":"0.00015358000000","ECCENTRICITY":"0.00017870","NORAD_CAT_ID":"47873","PERIAPSIS":"545.988","MEAN_MOTION":"15.06396099","OBJECT_NAME":"STARLINK-2329","OBJECT_ID":"2021-021P","COUNTRY_CODE":"US","MEAN_MOTION_DDOT":"0.0000000000000","GP_ID":"203442709","PERIOD":"95.592","SITE":"AFETR","DECAY_DATE":null,"CLASSIFICATION_TYPE":"U","OBJECT_TYPE":"PAYLOAD","ELEMENT_SET_NO":"999","REV_AT_EPOCH":"6588","RCS_SIZE":"LARGE","MEAN_ANOMALY":"308.9200","EPOCH":"2022-05-13T11:32:22.253568","INCLINATION":"53.0563","SEMIMAJOR_AXIS":"6925.361","CENTER_NAME":"EARTH","MEAN_MOTION_DOT":"0.00002006","TLE_LINE2":"2 47873  53.0563  49.4557 0001787  51.1949 308.9200 15.06396099 65886","MEAN_ELEMENT_THEORY":"SGP4","RA_OF_ASC_NODE":"49.4557","LAUNCH_DATE":"2021-03-14","TIME_SYSTEM":"UTC","REF_FRAME":"TEME","ARG_OF_PERICENTER":"51.1949","TLE_LINE1":"1 47873U 21021P   22133.48081312  .00002006  00000-0  15358-3 0  9996","EPHEMERIS_TYPE":"0","FILE":"3443851","APOAPSIS":"548.463"},{"RCS_SIZE":"LARGE","SEMIMAJOR_AXIS":"6925.351","INCLINATION":"53.0565","EPOCH":"2022-05-13T21:18:11.283840","MEAN_ANOMALY":"302.9386","SITE":"AFETR","GP_ID":"203477035","PERIOD":"95.592","MEAN_MOTION_DDOT":"0.0000000000000","COUNTRY_CODE":"US","ELEMENT_SET_NO":"999","OBJECT_TYPE":"PAYLOAD","REV_AT_EPOCH":"6658","CLASSIFICATION_TYPE":"U","DECAY_DATE":null,"PERIAPSIS":"546.025","OBJECT_ID":"2021-021Q","OBJECT_NAME":"STARLINK-2330","MEAN_MOTION":"15.06399131","BSTAR":"0.00008468600000","NORAD_CAT_ID":"47874","ECCENTRICITY":"0.00017200","FILE":"3444395","TLE_LINE1":"1 47874U 21021Q   22133.88763060  .00000980  00000-0  84686-4 0  9998","ARG_OF_PERICENTER":"57.1768","EPHEMERIS_TYPE":"0","APOAPSIS":"548.407","RA_OF_ASC_NODE":"2.6105","REF_FRAME":"TEME","LAUNCH_DATE":"2021-03-14","TIME_SYSTEM":"UTC","MEAN_ELEMENT_THEORY":"SGP4","CENTER_NAME":"EARTH","MEAN_MOTION_DOT":"0.00000980","TLE_LINE2":"2 47874  53.0565   2.6105 0001720  57.1768 302.9386 15.06399131 66588"},{"FILE":"3444395","EPHEMERIS_TYPE":"0","TLE_LINE1":"1 47875U 21021R   22133.80425085  .00000402  00000-0  45851-4 0  9993","ARG_OF_PERICENTER":"77.0404","APOAPSIS":"548.211","RA_OF_ASC_NODE":"58.0005","LAUNCH_DATE":"2021-03-14","TIME_SYSTEM":"UTC","REF_FRAME":"TEME","MEAN_ELEMENT_THEORY":"SGP4","MEAN_MOTION_DOT":"0.00000402","CENTER_NAME":"EARTH","TLE_LINE2":"2 47875  53.0557  58.0005 0001449  77.0404 283.0746 15.06401978 65851","RCS_SIZE":"LARGE","INCLINATION":"53.0557","SEMIMAJOR_AXIS":"6925.342","MEAN_ANOMALY":"283.0746","EPOCH":"2022-05-13T19:18:07.273440","GP_ID":"203478285","PERIOD":"95.592","SITE":"AFETR","COUNTRY_CODE":"US","MEAN_MOTION_DDOT":"0.0000000000000","ELEMENT_SET_NO":"999","OBJECT_TYPE":"PAYLOAD","REV_AT_EPOCH":"6585","DECAY_DATE":null,"CLASSIFICATION_TYPE":"U","PERIAPSIS":"546.204","OBJECT_ID":"2021-021R","OBJECT_NAME":"STARLINK-2331","MEAN_MOTION":"15.06401978","BSTAR":"0.00004585100000","NORAD_CAT_ID":"47875","ECCENTRICITY":"0.00014490"},{"DECAY_DATE":null,"CLASSIFICATION_TYPE":"U","OBJECT_TYPE":"PAYLOAD","REV_AT_EPOCH":"6582","ELEMENT_SET_NO":"999","MEAN_MOTION_DDOT":"0.0000000000000","COUNTRY_CODE":"US","PERIOD":"95.592","GP_ID":"203478536","SITE":"AFETR","MEAN_ANOMALY":"308.0654","EPOCH":"2022-05-13T22:13:16.740480","INCLINATION":"53.0569","SEMIMAJOR_AXIS":"6925.353","RCS_SIZE":"LARGE","NORAD_CAT_ID":"47876","ECCENTRICITY":"0.00019620","BSTAR":"0.00009467300000","MEAN_MOTION":"15.06398390","OBJECT_NAME":"STARLINK-2332","OBJECT_ID":"2021-021S","PERIAPSIS":"545.860","TIME_SYSTEM":"UTC","LAUNCH_DATE":"2021-03-14","REF_FRAME":"TEME","RA_OF_ASC_NODE":"57.4579","APOAPSIS":"548.577","TLE_LINE1":"1 47876U 21021S   22133.92588820  .00001129  00000-0  94673-4 0  9997","ARG_OF_PERICENTER":"52.0512","EPHEMERIS_TYPE":"0","FILE":"3444395","TLE_LINE2":"2 47876  53.0569  57.4579 0001962  52.0512 308.0654 15.06398390 65823","CENTER_NAME":"EARTH","MEAN_MOTION_DOT":"0.00001129","MEAN_ELEMENT_THEORY":"SGP4"},{"MEAN_ANOMALY":"316.3883","EPOCH":"2022-05-13T19:23:25.876032","INCLINATION":"53.0558","SEMIMAJOR_AXIS":"6925.361","RCS_SIZE":"LARGE","DECAY_DATE":null,"CLASSIFICATION_TYPE":"U","OBJECT_TYPE":"PAYLOAD","REV_AT_EPOCH":"6579","ELEMENT_SET_NO":"999","COUNTRY_CODE":"US","MEAN_MOTION_DDOT":"0.0000000000000","PERIOD":"95.592","GP_ID":"203477285","SITE":"AFETR","MEAN_MOTION":"15.06395915","OBJECT_ID":"2021-021T","OBJECT_NAME":"STARLINK-2333","PERIAPSIS":"545.945","NORAD_CAT_ID":"47877","ECCENTRICITY":"0.00018500","BSTAR":"0.00009003600000","APOAPSIS":"548.507","EPHEMERIS_TYPE":"0","TLE_LINE1":"1 47877U 21021T   22133.80793838  .00001060  00000-0  90036-4 0  9995","ARG_OF_PERICENTER":"43.7252","FILE":"3444395","TIME_SYSTEM":"UTC","LAUNCH_DATE":"2021-03-14","REF_FRAME":"TEME","RA_OF_ASC_NODE":"57.9838","MEAN_ELEMENT_THEORY":"SGP4","TLE_LINE2":"2 47877  53.0558  57.9838 0001850  43.7252 316.3883 15.06395915 65791","CENTER_NAME":"EARTH","MEAN_MOTION_DOT":"0.00001060"}];
